#dP2021  7  2  0  0  0.00000000      96 __u+U ITR00 FIT  IAC
## 2164 432000.00000000   900.00000000 59397 0.0000000000000
+  127   C01C02C03C04C05C06C07C08C09C10C11C12C13C14C16C19C20
+        C21C22C23C24C25C26C27C28C29C30C32C33C34C35C36C37C38
+        C39C40C41C42C43C44C45C46C60E01E02E03E04E05E07E08E09
+        E11E12E13E14E15E18E19E21E24E25E26E27E30E31E33E36G01
+        G02G03G04G05G06G07G08G09G10G11G12G13G14G15G16G17G18
+        G19G20G21G22G23G24G25G26G27G28G29G30G31G32J01J02J03
+        J07R01R02R03R04R05R06R07R08R09R10R11R12R13R14R15R16
+        R17R18R19R20R21R22R23R24  0  0  0  0  0  0  0  0  0
++        13 12 13 13 13 10  9  0  9  9  9  9  9  9  9  8  8
++         8  8  8  8  8  8  8  8  8  7  8  8  8  8  8  8  9
++         9  9  9  8  8  8  8  8 13  4  4  5  4  5  4  5  4
++         4  4  4  5  4  4  4  4  5  4  4  4  4  5  5  4  4
++         4  4  4  4  4  4  3  4  3  4  4  4  3  3  4  4  4
++         4  4  4  4  3  3  4  4  4  4  4  4  4  4 10 10 10
++        15  7  6  6  6  6 13  6  6  6 13  8  6  8  6  6  7
++         6  6  8  7  6  8 13  6  0  0  0  0  0  0  0  0  0
%c M  cc GPS ccc cccc cccc cccc cccc ccccc ccccc ccccc ccccc
%c cc cc ccc ccc cccc cccc cccc cccc ccccc ccccc ccccc ccccc
%f  0.0000000  0.000000000  0.00000000000  0.000000000000000
%f  0.0000000  0.000000000  0.00000000000  0.000000000000000
%i    0    0    0    0      0      0      0      0         0
%i    0    0    0    0      0      0      0      0         0
/* INFORMATION & ANALYSIS CENTER (IAC)            RAPID DATA
/* S/V CLOCKS ARE ALIGNED TO GNSS TIME                      
/* G:C1WC2W R:C1PC2P E:C1XC5X C:C2IC6I J:C1CC2S             
/* PCV:IGS14_2148 OL/AL:FES2004  NONE     YN ORB:CoN CLK:CoN
*  2021 07 02 22 15  0.00000000
PC01 -34307.730774  24545.052876    129.458471   -312.381299
PC02   4410.166046  41891.096749  -1427.970768    542.445180
PC03 -14738.506171  39482.147968  -1130.643318   -114.562366
PC04 -39606.438129  14486.195732     60.868500   -225.082463
PC05  21877.856109  36030.335650  -1070.211360    -62.766563
PC06 -15225.851186  38309.700695  -7022.559194    575.753427
PC07  -8650.711199  26495.704740  32005.863138    163.784628
PC08      0.000000      0.000000      0.000000 999999.999999
PC09  -6658.965435  40717.556595   7785.821150    403.527484
PC10   4943.374318  32189.086764  27239.223480    -23.023521
PC11  17116.983678 -13436.203580 -17391.148527    434.689034
PC12  13962.329389   6418.688448 -23267.503060    824.272410
PC13 -10329.224831  25026.651084 -32308.048706    322.124848
PC14  17619.795952  -2609.938170  21522.634854    843.199320
PC16 -13672.961935  39379.476119  -5379.260843   -937.508686
PC19 -10615.022581  11859.982753 -22895.213195    894.537368
PC20 -20915.938988  -5281.341988 -17666.388870   -856.838351
PC21  19205.999117  20206.189650   1577.287143   -935.062090
PC22   6151.567362  22721.537140 -15009.228835   -948.623610
PC23   2728.813419 -16689.388166 -22187.449168   -956.282479
PC24  27365.873783  -1395.616598   5232.137691   -920.412201
PC25  20674.174466 -13764.203322 -12707.389603   -891.868513
PC26  18234.128848   9739.782500  18727.086459    884.305062
PC27  -9387.847658 -16165.357480  20700.839934    557.999765
PC28   3958.746557 -26555.861588   7590.939411    -55.254597
PC29 -14143.833810  21900.577538   9941.672732    414.192554
PC30 -17006.531636   3684.545711  21802.423737    472.738351
PC32 -19312.414665 -20075.139045  -1508.880664   -924.094216
PC33  10683.175962 -11844.072716  22904.782449   -939.809932
PC34  17175.995286  -4531.162993 -21540.841091   -636.952421
PC35  -3255.288547  26735.891787  -7251.752005   -205.480760
PC36 -21262.937939  13138.617801  12436.406138   -730.259901
PC37 -17227.310799 -10629.612783 -19191.666691   -868.407444
PC38 -20796.417968  25497.711046 -26434.368979    159.143817
PC39 -10407.397016  40511.192115  -4595.057691     32.153760
PC40    123.964649  28156.607306  31465.118326    176.758757
PC41  -5852.570566 -22629.024946  15295.406109   -954.220681
PC42  21204.062230   5976.950193  17186.152283   -916.422489
PC43  14530.067360 -21453.657291 -10400.333579   -803.530124
PC44   9963.921817  16015.266979 -20569.278400    269.635033
PC45  -2559.311093  16577.613469  22314.093521    483.076442
PC46 -27509.288439   2215.298134  -4230.760662    196.981576
PC60   7310.111056  41539.510141    -88.963255     -0.823236
PE01  24268.918818  13993.131068   9566.689448  -1141.844230
PE02 -24358.831519 -13928.235979  -9437.472003    230.214503
PE03 -15713.431383 -20175.685589 -14889.275482   -448.417318
PE04  17394.416911   -205.291098  23960.004259   -805.043276
PE05  -4772.432810 -29048.405491   3080.078499   -268.267567
PE07  -8801.840421  20899.098348 -19020.617152   -556.990030
PE08 -17175.982084    663.962543 -24090.643245   5976.543782
PE09   8505.875132 -21026.918257  19017.207540   5613.608413
PE11  19642.741625 -21910.997492   3259.308293   5772.800981
PE12  23664.031216  -8762.090883 -15494.355909   5130.549300
PE13 -19798.643742  21815.103262  -2858.018585    418.516011
PE14  10477.813471 -23014.041343 -12512.899624  -1486.743112
PE15 -23595.858366   8899.422215  15494.659166    805.586642
PE18   1336.116070  29378.085531  -2456.963219  -1629.011038
PE19  14773.706015  22018.967919  13166.970169    317.110111
PE21   7216.106846  17917.433078  22432.328879   -674.033542
PE24  15659.605149 -11194.578580 -22489.679958   -986.841962
PE25  -6983.723969 -17900.629806 -22506.695297   -538.775621
PE26  -3543.878648  21612.981545 -19917.844364   1624.499407
PE27 -14756.627788  11699.518868  22843.740965    -67.159736
PE30 -28154.410951  -2200.724375   8876.588139   2815.591039
PE31  27894.053738   1362.373913  -9806.095600   -482.836482
PE33  13496.594842   9220.364203 -24681.000233   -468.261346
PE36   4368.032921 -21859.940237  19473.280417   -229.078808
PG01  -7796.722141  18617.478290 -17346.939196    640.186306
PG02  22122.386514 -14312.663578  -2929.071693   -616.791072
PG03   1388.847198  16656.633071 -20756.818104   -209.006612
PG04  -1061.309016  26407.352374  -2282.480952   -201.475901
PG05  12446.222834 -10454.884045  20881.090580    -46.729360
PG06  22675.988186  -4290.336747 -13145.570270     34.640663
PG07   7622.622208  13613.359905  21842.316063    193.051189
PG08  -6888.482422  22342.312067  12293.030373    -27.335596
PG09   7678.113609  23975.240135   8372.900073   -353.864651
PG10 -23983.996427 -11741.737529   -462.552609   -154.222532
PG11  23960.754684 -10971.764935  -3325.274858      4.830805
PG12    726.433677 -16372.862160 -21181.349670    -63.200057
PG13  12884.974229 -15724.492085  16883.506667    152.578850
PG14  23454.904473  12479.059416   -920.218049     56.528132
PG15   4585.540412 -23210.108760  11344.397893   -138.262569
PG16 -17965.046398   4042.988644  19062.209244   -350.802717
PG17  12557.273044  13167.527486 -18920.290116    467.730143
PG18  -9861.536475 -11517.570454  21797.409674    343.502229
PG19  14686.630266   3471.028405 -22149.206904     21.182996
PG20  18508.908618  -7252.224775  17423.631674    520.579720
PG21 -14398.153353  19474.410798  -9587.918678    128.839194
PG22  -7576.088448  13811.849380 -21190.537879   -573.441680
PG23 -18207.149869 -16464.801717  10191.514704     89.744916
PG24  11033.016936 -20338.451128 -12929.210066    158.608152
PG25 -11819.186144 -18249.112672 -15697.747682    166.563738
PG26 -24122.027601  -1967.453282  11186.769797    105.805000
PG27 -12309.730319  13150.301087  19208.988842   -156.728360
PG28  23599.500653   9752.104507  -6393.514365    544.580305
PG29  -4584.414774 -24986.732837   7600.964359   -373.884492
PG30  18698.141069   4448.449241  18494.883653   -446.173390
PG31 -23782.700637   5404.104957 -11148.147814   -126.436470
PG32 -14618.006802  -9712.340647 -19870.406642     16.019464
PJ01 -20578.643699  21571.289005 -25249.294775 999999.999999
PJ02 -29494.907927  21678.403824  25803.707686 999999.999999
PJ03 -29863.818988  27958.649843  14987.096015 999999.999999
PJ07 -25381.841709  33668.739876    -26.364657      0.017803
PR01 -10697.986777 -22442.949812   5672.474883     81.757798
PR02 -15902.389848 -13822.089636 -14377.071361    484.582764
PR03 -10902.233453   2887.926606 -22837.003606     38.766786
PR04    356.661036  17628.869774 -18400.417880     93.993472
PR05  11213.701022  22601.063143  -3671.461934     74.624337
PR06  16329.267274  12417.252828  15140.306499    200.766179
PR07  10528.068820  -3646.312787  22983.947018    -42.163842
PR08   -298.592174 -17727.428241  18405.162125    -59.772753
PR09  23794.419527   3637.710521   8574.260645      0.928070
PR10  23819.738449  -4365.891915  -7912.378585    -72.483505
PR11  10114.167468 -10214.053198 -21062.519855    -17.710911
PR12  -9975.981304  -9966.091363 -21229.682824    242.077633
PR13 -23430.634172  -3855.314382  -9321.233637    -57.131244
PR14 -23390.243667   4728.798002   8998.995426     66.016951
PR15  -9651.089118  10291.417096  21273.041956    102.912861
PR16  11191.463025   9658.708512  20734.968074    -17.277294
PR17 -15598.504308  14048.642101  14521.204230    437.727152
PR18 -12076.542925  22378.777496  -1629.024502     82.076437
PR19  -3270.547450  19296.990792 -16369.328872   -150.030683
PR20  10041.737382   3337.569052 -23211.761442    -51.850390
PR21  15617.013547 -14926.963965 -13548.024723   -220.959772
PR22  11793.352643 -22516.225614   2653.053039   -120.684371
PR23  -1805.379800 -15065.298828  20489.256748     -8.666296
PR24 -10867.047861  -2726.636709  22925.635617     48.882916
EOF
